NORAD_CAT_ID,OBJECT_NAME,OBJECT_TYPE,EPOCH,MEAN_MOTION,ECCENTRICITY,INCLINATION,RA_OF_ASC_NODE,ARG_OF_PERICENTER,MEAN_ANOMALY,BSTAR,MEAN_MOTION_DOT,MEAN_MOTION_DDOT,TLE_LINE0,TLE_LINE1,TLE_LINE2,SEMIMAJOR_AXIS,PERIOD,APOGEE,PERIGEE,DECAYED
55395.0,STARLINK-5274,PAYLOAD,2023-10-24 12:19:59,14.98326756,0.0003044,69.9993,90.7949,270.2202,89.8608,-1.6719e-05,-2.92e-06,0.0,0 STARLINK-5274,1 55395U 23014E   23297.51387817 -.00000292  00000-0 -16719-4 0  9993,2 55395  69.9993  90.7949 0003044 270.2202  89.8608 14.98326756 42161,6950.203,96.107,574.184,569.952,0.0
55395.0,STARLINK-5274,PAYLOAD,2023-10-25 13:58:07,14.98333054,0.0003003,69.9998,88.1019,271.3891,88.6924,-3.8861e-05,-5.57e-06,0.0,0 STARLINK-5274,1 55395U 23014E   23298.58203416 -.00000557  00000-0 -38861-4 0  9999,2 55395  69.9998  88.1019 0003003 271.3891  88.6924 14.98333054 41386,6950.183,96.107,574.136,569.961,0.0
55395.0,STARLINK-5274,PAYLOAD,2023-10-26 14:00:08,14.98328012,0.0003042,69.9999,85.5772,270.5838,89.4973,1.2494e-05,5.6e-07,0.0,0 STARLINK-5274,1 55395U 23014E   23299.58343483  .00000056  00000-0  12494-4 0  9995,2 55395  69.9999  85.5772 0003042 270.5838  89.4973 14.98328012 42471,6950.199,96.107,574.178,569.95,0.0
55395.0,STARLINK-5274,PAYLOAD,2023-10-26 18:48:32,14.98331282,0.0002966,69.9999,85.0723,270.6003,89.4816,6.1591e-05,6.42e-06,0.0,0 STARLINK-5274,1 55395U 23014E   23299.78371143  .00000642  00000-0  61591-4 0  9994,2 55395  69.9999  85.0723 0002966 270.6003  89.4816 14.98331282 41569,6950.189,96.107,574.115,569.993,0.0
55395.0,STARLINK-5274,PAYLOAD,2023-10-27 10:49:52,14.98350714,0.0002795,69.9996,83.3891,265.11,94.974,-0.00024175,-2.978e-05,0.0,0 STARLINK-5274,1 55395U 23014E   23300.45130749 -.00002978  00000-0 -24175-3 0  9998,2 55395  69.9996  83.3891 0002795 265.1100  94.9740 14.98350714 41669,6950.129,96.106,573.936,570.051,0.0
55395.0,STARLINK-5274,PAYLOAD,2023-10-27 20:26:40,14.98349841,0.0002789,69.9997,82.3792,265.5406,94.5435,-0.00021144,-2.616e-05,0.0,0 STARLINK-5274,1 55395U 23014E   23300.85186271 -.00002616  00000-0 -21144-3 0  9995,2 55395  69.9997  82.3792 0002789 265.5406  94.5435 14.98349841 42662,6950.132,96.106,573.935,570.058,0.0
55395.0,STARLINK-5274,PAYLOAD,2023-10-28 10:51:54,14.9832398,0.000287,69.9999,80.8643,273.1083,86.9748,-6.054e-05,-8.15e-06,0.0,0 STARLINK-5274,1 55395U 23014E   23301.45271716 -.00000815  00000-0 -60540-4 0  9994,2 55395  69.9999  80.8643 0002870 273.1083  86.9748 14.98323980 41813,6950.212,96.107,574.071,570.082,0.0
55395.0,STARLINK-5274,PAYLOAD,2023-10-28 14:04:11,14.98322418,0.0002895,70.0001,80.5278,272.8594,87.2234,-7.7179e-05,-1.014e-05,0.0,0 STARLINK-5274,1 55395U 23014E   23301.58623892 -.00001014  00000-0 -77179-4 0  9992,2 55395  70.0001  80.5278 0002895 272.8594  87.2234 14.98322418 42776,6950.216,96.107,574.093,570.069,0.0
55395.0,STARLINK-5274,PAYLOAD,2023-10-28 18:52:35,14.98324777,0.0002862,69.9999,80.0218,269.9223,90.1608,-5.7754e-05,-7.82e-06,0.0,0 STARLINK-5274,1 55395U 23014E   23301.78651750 -.00000782  00000-0 -57754-4 0  9996,2 55395  69.9999  80.0218 0002862 269.9223  90.1608 14.98324777 42800,6950.209,96.107,574.063,570.085,0.0
55395.0,STARLINK-5274,PAYLOAD,2023-10-29 12:30:02,14.98342202,0.0002687,70.0002,78.1709,269.554,90.5311,2.1523e-05,1.64e-06,0.0,0 STARLINK-5274,1 55395U 23014E   23302.52086346  .00000164  00000-0  21523-4 0  9999,2 55395  70.0002  78.1709 0002687 269.5540  90.5311 14.98342202 41979,6950.155,96.106,573.888,570.153,0.0
55395.0,STARLINK-5274,PAYLOAD,2023-10-29 14:06:10,14.98340509,0.000257,70.0012,78.0025,260.7251,99.3618,6.3236e-05,6.62e-06,0.0,0 STARLINK-5274,1 55395U 23014E   23302.58762299  .00000662  00000-0  63236-4 0  9993,2 55395  70.0012  78.0025 0002570 260.7251  99.3618 14.98340509 42924,6950.16,96.106,573.812,570.239,0.0
55395.0,STARLINK-5274,PAYLOAD,2023-10-29 18:54:35,14.9830605,0.0003131,70.0013,77.4984,269.8456,90.2344,0.00067661,7.984e-05,0.0,0 STARLINK-5274,1 55395U 23014E   23302.78790969  .00007984  00000-0  67661-3 0  9999,2 55395  70.0013  77.4984 0003131 269.8456  90.2344 14.98306050 42012,6950.267,96.109,574.308,569.956,0.0
55395.0,STARLINK-5274,PAYLOAD,2023-10-30 18:56:36,14.98324388,0.0003108,69.9998,74.9721,269.3206,90.7597,2.7257e-05,2.32e-06,0.0,0 STARLINK-5274,1 55395U 23014E   23303.78931418  .00000232  00000-0  27257-4 0  9993,2 55395  69.9998  74.9721 0003108 269.3206  90.7597 14.98324388 42169,6950.21,96.107,574.235,569.915,0.0
55395.0,STARLINK-5274,PAYLOAD,2023-10-31 12:34:04,14.98393829,0.0002711,69.9998,73.1206,259.3288,100.7566,-0.0011107,-0.00013342,0.0,0 STARLINK-5274,1 55395U 23014E   23304.52366510 -.00013342  00000-0 -11107-2 0  9994,2 55395  69.9998  73.1206 0002711 259.3288 100.7566 14.98393829 42272,6949.996,96.103,573.745,569.976,0.0
55395.0,STARLINK-5274,PAYLOAD,2023-10-31 14:10:12,14.98390041,0.0002718,70.0,72.9522,260.2388,99.8464,-0.0010383,-0.00012479,0.0,0 STARLINK-5274,1 55395U 23014E   23304.59042316 -.00012479  00000-0 -10383-2 0  9991,2 55395  70.0000  72.9522 0002718 260.2388  99.8464 14.98390041 43220,6950.007,96.103,573.761,569.983,0.0
55395.0,STARLINK-5274,PAYLOAD,2023-10-31 18:58:36,14.98383685,0.000267,70.0002,72.4473,261.7277,98.358,-0.00082369,-9.921e-05,0.0,0 STARLINK-5274,1 55395U 23014E   23304.79069575 -.00009921  00000-0 -82369-3 0  9991,2 55395  70.0002  72.4473 0002670 261.7277  98.3580 14.98383685 43254,6950.027,96.104,573.748,570.036,0.0
55395.0,STARLINK-5274,PAYLOAD,2023-11-01 01:23:09,14.98334682,0.0003036,70.0008,71.7744,268.9661,91.115,-0.00010311,-1.323e-05,0.0,0 STARLINK-5274,1 55395U 23014E   23305.05774983 -.00001323  00000-0 -10311-3 0  9993,2 55395  70.0008  71.7744 0003036 268.9661  91.1150 14.98334682 42353,6950.178,96.107,574.153,569.933,0.0
55395.0,STARLINK-5274,PAYLOAD,2023-11-01 10:59:58,14.98321129,0.000314,70.0008,70.7653,268.2417,91.8383,3.702e-05,3.49e-06,0.0,0 STARLINK-5274,1 55395U 23014E   23305.45831591  .00000349  00000-0  37020-4 0  9998,2 55395  70.0008  70.7653 0003140 268.2417  91.8383 14.98321129 42413,6950.22,96.108,574.268,569.903,0.0
55395.0,STARLINK-5274,PAYLOAD,2023-11-01 14:12:14,14.98323435,0.0002982,70.0013,70.4285,271.2933,88.7885,5.1142e-05,5.17e-06,0.0,0 STARLINK-5274,1 55395U 23014E   23305.59183514  .00000517  00000-0  51142-4 0  9996,2 55395  70.0013  70.4285 0002982 271.2933  88.7885 14.98323435 43377,6950.213,96.107,574.151,570.006,0.0
55395.0,STARLINK-5274,PAYLOAD,2023-11-01 17:24:30,14.98343239,0.0002789,70.0011,70.0925,264.1591,95.9251,-0.00023643,-2.914e-05,0.0,0 STARLINK-5274,1 55395U 23014E   23305.72534894 -.00002914  00000-0 -23643-3 0  9991,2 55395  70.0011  70.0925 0002789 264.1591  95.9251 14.98343239 42457,6950.152,96.106,573.955,570.079,0.0
55395.0,STARLINK-5274,PAYLOAD,2023-11-02 01:25:10,14.98318987,0.0003222,70.0018,69.2512,273.4357,86.6433,0.00035663,4.164e-05,0.0,0 STARLINK-5274,1 55395U 23014E   23306.05915130  .00004164  00000-0  35663-3 0  9996,2 55395  70.0018  69.2512 0003222 273.4357  86.6433 14.98318987 42509,6950.227,96.108,574.331,569.853,0.0
55395.0,STARLINK-5274,PAYLOAD,2023-11-02 14:14:15,14.98324956,0.0002506,70.0022,67.9054,272.9781,87.1091,-1.6591e-05,-2.91e-06,0.0,0 STARLINK-5274,1 55395U 23014E   23306.59323838 -.00000291  00000-0 -16591-4 0  9992,2 55395  70.0022  67.9054 0002506 272.9781  87.1091 14.98324956 43521,6950.208,96.107,573.815,570.332,0.0
55395.0,STARLINK-5274,PAYLOAD,2023-11-02 17:26:32,14.98323001,0.0002601,70.002,67.5691,271.6118,88.4743,-4.45e-05,-6.24e-06,0.0,0 STARLINK-5274,1 55395U 23014E   23306.72676062 -.00000624  00000-0 -44500-4 0  9998,2 55395  70.0020  67.5691 0002601 271.6118  88.4743 14.98323001 43548,6950.215,96.107,573.887,570.272,0.0
55395.0,STARLINK-5274,PAYLOAD,2023-11-03 11:04:00,14.98331456,0.0002909,70.0012,65.716,274.6571,85.4256,6.0709e-05,6.31e-06,0.0,0 STARLINK-5274,1 55395U 23014E   23307.46111178  .00000631  00000-0  60709-4 0  9997,2 55395  70.0012  65.7160 0002909 274.6571  85.4256 14.98331456 42714,6950.188,96.107,574.075,570.032,0.0
55395.0,STARLINK-5274,PAYLOAD,2023-11-03 14:16:15,14.98335517,0.0002952,70.0011,65.3792,275.3304,84.7518,8.0339e-05,8.66e-06,0.0,0 STARLINK-5274,1 55395U 23014E   23307.59462843  .00000866  00000-0  80339-4 0  9990,2 55395  70.0011  65.3792 0002952 275.3304  84.7518 14.98335517 43671,6950.176,96.107,574.093,569.989,0.0
55395.0,STARLINK-5274,PAYLOAD,2023-11-03 17:28:31,14.98336724,0.0002967,70.001,65.0423,274.98,85.1021,9.6782e-05,1.062e-05,0.0,0 STARLINK-5274,1 55395U 23014E   23307.72814696  .00001062  00000-0  96782-4 0  9990,2 55395  70.0010  65.0423 0002967 274.9800  85.1021 14.98336724 43697,6950.172,96.107,574.099,569.975,0.0
55395.0,STARLINK-5274,PAYLOAD,2023-11-04 11:06:01,14.9832025,0.0002986,70.0013,63.1895,275.7638,84.318,1.2532e-05,5.7e-07,0.0,0 STARLINK-5274,1 55395U 23014E   23308.46251975  .00000057  00000-0  12532-4 0  9991,2 55395  70.0013  63.1895 0002986 275.7638  84.3180 14.98320250 42863,6950.223,96.108,574.163,570.013,0.0
55395.0,STARLINK-5274,PAYLOAD,2023-11-04 14:18:17,14.98327174,0.0003,70.0011,62.8541,275.0275,85.0542,3.8039e-05,3.61e-06,0.0,0 STARLINK-5274,1 55395U 23014E   23308.59603542  .00000361  00000-0  38039-4 0  9994,2 55395  70.0011  62.8541 0003000 275.0275  85.0542 14.98327174 43822,6950.202,96.107,574.152,569.982,0.0
55395.0,STARLINK-5274,PAYLOAD,2023-11-04 17:30:33,14.98326725,0.0002855,70.0012,62.5176,272.4525,87.6307,4.1114e-05,3.98e-06,0.0,0 STARLINK-5274,1 55395U 23014E   23308.72955577  .00000398  00000-0  41114-4 0  9995,2 55395  70.0012  62.5176 0002855 272.4525  87.6307 14.98326725 42906,6950.203,96.107,574.052,570.084,0.0
55395.0,STARLINK-5274,PAYLOAD,2023-11-05 09:31:53,14.98338578,0.0003063,70.0012,60.8345,273.4853,86.5956,2.9379e-05,2.58e-06,0.0,0 STARLINK-5274,1 55395U 23014E   23309.39714715  .00000258  00000-0  29379-4 0  9990,2 55395  70.0012  60.8345 0003063 273.4853  86.5956 14.98338578 43001,6950.166,96.106,574.16,569.903,0.0
